NOAA 18                 
1 28654U 05018A   26105.27406701  .00000009  00000+0  28165-4 0  9994
2 28654  98.8117 185.8609 0013659 333.7844  26.2636 14.13718097 77420
NOAA 19                 
1 33591U 09005A   26105.26179487  .00000017  00000+0  33099-4 0  9998
2 33591  98.9548 176.0826 0013384 204.2505 155.8039 14.13463885885592
SUOMI NPP               
1 37849U 11061A   26105.25519858  .00000026  00000+0  33300-4 0  9997
2 37849  98.7914  46.5760 0002463 123.2441 236.8971 14.19503490749519
NOAA 20 (JPSS-1)        
1 43013U 17073A   26105.26910897  .00000023  00000+0  31999-4 0  9994
2 43013  98.7734  45.3025 0002153  88.0253 272.1169 14.19545460435545
