[{"OBJECT_NAME":"NOAA 18","OBJECT_ID":"2005-018A","EPOCH":"2026-04-15T06:34:39.389664","MEAN_MOTION":14.13718097,"ECCENTRICITY":0.00136596,"INCLINATION":98.8117,"RA_OF_ASC_NODE":185.8609,"ARG_OF_PERICENTER":333.7844,"MEAN_ANOMALY":26.2636,"EPHEMERIS_TYPE":0,"CLASSIFICATION_TYPE":"U","NORAD_CAT_ID":28654,"ELEMENT_SET_NO":999,"REV_AT_EPOCH":7742,"BSTAR":2.8165145e-5,"MEAN_MOTION_DOT":9.0e-8,"MEAN_MOTION_DDOT":0},{"OBJECT_NAME":"NOAA 19","OBJECT_ID":"2009-005A","EPOCH":"2026-04-15T06:16:59.076768","MEAN_MOTION":14.13463885,"ECCENTRICITY":0.00133849,"INCLINATION":98.9548,"RA_OF_ASC_NODE":176.0826,"ARG_OF_PERICENTER":204.2505,"MEAN_ANOMALY":155.8039,"EPHEMERIS_TYPE":0,"CLASSIFICATION_TYPE":"U","NORAD_CAT_ID":33591,"ELEMENT_SET_NO":999,"REV_AT_EPOCH":88559,"BSTAR":3.3099195e-5,"MEAN_MOTION_DOT":1.7e-7,"MEAN_MOTION_DDOT":0},{"OBJECT_NAME":"SUOMI NPP","OBJECT_ID":"2011-061A","EPOCH":"2026-04-15T06:07:29.157312","MEAN_MOTION":14.1950349,"ECCENTRICITY":0.00024633,"INCLINATION":98.7914,"RA_OF_ASC_NODE":46.576,"ARG_OF_PERICENTER":123.2441,"MEAN_ANOMALY":236.8971,"EPHEMERIS_TYPE":0,"CLASSIFICATION_TYPE":"U","NORAD_CAT_ID":37849,"ELEMENT_SET_NO":999,"REV_AT_EPOCH":74951,"BSTAR":3.3299989e-5,"MEAN_MOTION_DOT":2.6e-7,"MEAN_MOTION_DDOT":0},{"OBJECT_NAME":"NOAA 20 (JPSS-1)","OBJECT_ID":"2017-073A","EPOCH":"2026-04-15T06:27:31.015008","MEAN_MOTION":14.1954546,"ECCENTRICITY":0.00021535,"INCLINATION":98.7734,"RA_OF_ASC_NODE":45.3025,"ARG_OF_PERICENTER":88.0253,"MEAN_ANOMALY":272.1169,"EPHEMERIS_TYPE":0,"CLASSIFICATION_TYPE":"U","NORAD_CAT_ID":43013,"ELEMENT_SET_NO":999,"REV_AT_EPOCH":43554,"BSTAR":3.1998517e-5,"MEAN_MOTION_DOT":2.3e-7,"MEAN_MOTION_DDOT":0}]
